[{"OBJECT_NAME":"ONEWEB-0411","OBJECT_ID":"2022-012B","EPOCH":"2025-10-14T03:24:16.539840","MEAN_MOTION":13.10369726,"ECCENTRICITY":0.00021274,"INCLINATION":87.8751,"RA_OF_ASC_NODE":85.3202,"ARG_OF_PERICENTER":102.3225,"MEAN_ANOMALY":257.814,"EPHEMERIS_TYPE":0,"CLASSIFICATION_TYPE":"U","NORAD_CAT_ID":51623,"ELEMENT_SET_NO":999,"REV_AT_EPOCH":17706,"BSTAR":0.00014688766,"MEAN_MOTION_DOT":6.4e-7,"MEAN_MOTION_DDOT":0},{"OBJECT_NAME":"ONEWEB-0415","OBJECT_ID":"2022-012C","EPOCH":"2025-10-13T21:49:38.003232","MEAN_MOTION":13.10369298,"ECCENTRICITY":0.00019061,"INCLINATION":87.8748,"RA_OF_ASC_NODE":85.3688,"ARG_OF_PERICENTER":97.6365,"MEAN_ANOMALY":262.4979,"EPHEMERIS_TYPE":0,"CLASSIFICATION_TYPE":"U","NORAD_CAT_ID":51624,"ELEMENT_SET_NO":999,"REV_AT_EPOCH":17703,"BSTAR":0.00091195375,"MEAN_MOTION_DOT":3.31e-6,"MEAN_MOTION_DDOT":0},{"OBJECT_NAME":"ONEWEB-0416","OBJECT_ID":"2022-012D","EPOCH":"2025-10-14T03:36:12.775104","MEAN_MOTION":13.10368407,"ECCENTRICITY":0.00016757,"INCLINATION":87.8752,"RA_OF_ASC_NODE":85.341,"ARG_OF_PERICENTER":91.6378,"MEAN_ANOMALY":268.4941,"EPHEMERIS_TYPE":0,"CLASSIFICATION_TYPE":"U","NORAD_CAT_ID":51625,"ELEMENT_SET_NO":999,"REV_AT_EPOCH":17710,"BSTAR":-0.0010218869,"MEAN_MOTION_DOT":-3.44e-6,"MEAN_MOTION_DDOT":0},{"OBJECT_NAME":"ONEWEB-0422","OBJECT_ID":"2022-012E","EPOCH":"2025-10-14T06:29:01.151808","MEAN_MOTION":13.17649923,"ECCENTRICITY":0.00014963,"INCLINATION":87.9101,"RA_OF_ASC_NODE":54.7475,"ARG_OF_PERICENTER":123.7508,"MEAN_ANOMALY":236.3767,"EPHEMERIS_TYPE":0,"CLASSIFICATION_TYPE":"U","NORAD_CAT_ID":51626,"ELEMENT_SET_NO":999,"REV_AT_EPOCH":18142,"BSTAR":-1.8189649e-5,"MEAN_MOTION_DOT":6.0e-8,"MEAN_MOTION_DDOT":0},{"OBJECT_NAME":"ONEWEB-0423","OBJECT_ID":"2022-012F","EPOCH":"2025-10-14T02:40:35.639040","MEAN_MOTION":13.17645974,"ECCENTRICITY":0.00015589,"INCLINATION":87.9103,"RA_OF_ASC_NODE":54.7885,"ARG_OF_PERICENTER":99.1147,"MEAN_ANOMALY":261.0161,"EPHEMERIS_TYPE":0,"CLASSIFICATION_TYPE":"U","NORAD_CAT_ID":51627,"ELEMENT_SET_NO":999,"REV_AT_EPOCH":18129,"BSTAR":-0.00020693947,"MEAN_MOTION_DOT":-6.7e-7,"MEAN_MOTION_DDOT":0},{"OBJECT_NAME":"ONEWEB-0425","OBJECT_ID":"2022-012G","EPOCH":"2025-10-14T03:50:32.591616","MEAN_MOTION":13.10370805,"ECCENTRICITY":0.00015275,"INCLINATION":87.875,"RA_OF_ASC_NODE":85.3085,"ARG_OF_PERICENTER":80.2982,"MEAN_ANOMALY":279.8318,"EPHEMERIS_TYPE":0,"CLASSIFICATION_TYPE":"U","NORAD_CAT_ID":51628,"ELEMENT_SET_NO":999,"REV_AT_EPOCH":17710,"BSTAR":-0.001809353,"MEAN_MOTION_DOT":-6.19e-6,"MEAN_MOTION_DDOT":0},{"OBJECT_NAME":"ONEWEB-0428","OBJECT_ID":"2022-012H","EPOCH":"2025-10-14T03:21:53.230752","MEAN_MOTION":13.10369487,"ECCENTRICITY":0.00015922,"INCLINATION":87.875,"RA_OF_ASC_NODE":85.3335,"ARG_OF_PERICENTER":99.4109,"MEAN_ANOMALY":260.7199,"EPHEMERIS_TYPE":0,"CLASSIFICATION_TYPE":"U","NORAD_CAT_ID":51629,"ELEMENT_SET_NO":999,"REV_AT_EPOCH":17706,"BSTAR":0.00031575243,"MEAN_MOTION_DOT":1.23e-6,"MEAN_MOTION_DDOT":0},{"OBJECT_NAME":"ONEWEB-0431","OBJECT_ID":"2022-012J","EPOCH":"2025-10-14T04:28:36.998112","MEAN_MOTION":13.10375765,"ECCENTRICITY":0.0002117,"INCLINATION":87.8762,"RA_OF_ASC_NODE":85.2988,"ARG_OF_PERICENTER":106.4157,"MEAN_ANOMALY":253.7203,"EPHEMERIS_TYPE":0,"CLASSIFICATION_TYPE":"U","NORAD_CAT_ID":51630,"ELEMENT_SET_NO":999,"REV_AT_EPOCH":17712,"BSTAR":0.00056244687,"MEAN_MOTION_DOT":2.09e-6,"MEAN_MOTION_DDOT":0},{"OBJECT_NAME":"ONEWEB-0434","OBJECT_ID":"2022-012K","EPOCH":"2025-10-14T00:15:24.503328","MEAN_MOTION":13.10372396,"ECCENTRICITY":0.00014418,"INCLINATION":87.8753,"RA_OF_ASC_NODE":85.3747,"ARG_OF_PERICENTER":68.9786,"MEAN_ANOMALY":291.1496,"EPHEMERIS_TYPE":0,"CLASSIFICATION_TYPE":"U","NORAD_CAT_ID":51631,"ELEMENT_SET_NO":999,"REV_AT_EPOCH":17708,"BSTAR":-0.0016632372,"MEAN_MOTION_DOT":-5.68e-6,"MEAN_MOTION_DDOT":0},{"OBJECT_NAME":"ONEWEB-0435","OBJECT_ID":"2022-012L","EPOCH":"2025-10-14T04:07:16.489632","MEAN_MOTION":13.10374585,"ECCENTRICITY":0.00014271,"INCLINATION":87.8751,"RA_OF_ASC_NODE":85.3332,"ARG_OF_PERICENTER":106.5159,"MEAN_ANOMALY":253.6125,"EPHEMERIS_TYPE":0,"CLASSIFICATION_TYPE":"U","NORAD_CAT_ID":51632,"ELEMENT_SET_NO":999,"REV_AT_EPOCH":17709,"BSTAR":-0.0018857578,"MEAN_MOTION_DOT":-6.46e-6,"MEAN_MOTION_DDOT":0},{"OBJECT_NAME":"ONEWEB-0436","OBJECT_ID":"2022-012M","EPOCH":"2025-10-14T02:28:28.392960","MEAN_MOTION":13.17647619,"ECCENTRICITY":0.00017232,"INCLINATION":87.9098,"RA_OF_ASC_NODE":54.7694,"ARG_OF_PERICENTER":105.9003,"MEAN_ANOMALY":254.2319,"EPHEMERIS_TYPE":0,"CLASSIFICATION_TYPE":"U","NORAD_CAT_ID":51633,"ELEMENT_SET_NO":999,"REV_AT_EPOCH":18127,"BSTAR":-0.0002990059,"MEAN_MOTION_DOT":-1.03e-6,"MEAN_MOTION_DDOT":0},{"OBJECT_NAME":"ONEWEB-0438","OBJECT_ID":"2022-012N","EPOCH":"2025-10-14T03:43:22.599552","MEAN_MOTION":13.10369329,"ECCENTRICITY":0.00015806,"INCLINATION":87.8752,"RA_OF_ASC_NODE":85.3372,"ARG_OF_PERICENTER":86.4089,"MEAN_ANOMALY":273.7219,"EPHEMERIS_TYPE":0,"CLASSIFICATION_TYPE":"U","NORAD_CAT_ID":51634,"ELEMENT_SET_NO":999,"REV_AT_EPOCH":17712,"BSTAR":-0.0016431797,"MEAN_MOTION_DOT":-5.61e-6,"MEAN_MOTION_DDOT":0},{"OBJECT_NAME":"ONEWEB-0439","OBJECT_ID":"2022-012P","EPOCH":"2025-10-14T03:48:09.245376","MEAN_MOTION":13.10374134,"ECCENTRICITY":0.00015619,"INCLINATION":87.8749,"RA_OF_ASC_NODE":85.3253,"ARG_OF_PERICENTER":92.5187,"MEAN_ANOMALY":267.6119,"EPHEMERIS_TYPE":0,"CLASSIFICATION_TYPE":"U","NORAD_CAT_ID":51635,"ELEMENT_SET_NO":999,"REV_AT_EPOCH":17710,"BSTAR":-0.0039135659,"MEAN_MOTION_DOT":-1.353e-5,"MEAN_MOTION_DDOT":0},{"OBJECT_NAME":"ONEWEB-0442","OBJECT_ID":"2022-012Q","EPOCH":"2025-10-14T07:45:32.530752","MEAN_MOTION":13.17648169,"ECCENTRICITY":0.0001907,"INCLINATION":87.9091,"RA_OF_ASC_NODE":54.7781,"ARG_OF_PERICENTER":78.4639,"MEAN_ANOMALY":281.6706,"EPHEMERIS_TYPE":0,"CLASSIFICATION_TYPE":"U","NORAD_CAT_ID":51636,"ELEMENT_SET_NO":999,"REV_AT_EPOCH":18129,"BSTAR":-0.00050929176,"MEAN_MOTION_DOT":-1.85e-6,"MEAN_MOTION_DDOT":0},{"OBJECT_NAME":"ONEWEB-0443","OBJECT_ID":"2022-012R","EPOCH":"2025-10-14T06:24:08.932320","MEAN_MOTION":13.17647488,"ECCENTRICITY":0.00014296,"INCLINATION":87.9092,"RA_OF_ASC_NODE":54.7957,"ARG_OF_PERICENTER":92.3533,"MEAN_ANOMALY":267.7762,"EPHEMERIS_TYPE":0,"CLASSIFICATION_TYPE":"U","NORAD_CAT_ID":51637,"ELEMENT_SET_NO":999,"REV_AT_EPOCH":18133,"BSTAR":0.00014788211,"MEAN_MOTION_DOT":7.0e-7,"MEAN_MOTION_DDOT":0},{"OBJECT_NAME":"ONEWEB-0444","OBJECT_ID":"2022-012S","EPOCH":"2025-10-14T03:33:47.457216","MEAN_MOTION":13.103668,"ECCENTRICITY":0.00016006,"INCLINATION":87.8746,"RA_OF_ASC_NODE":85.3267,"ARG_OF_PERICENTER":93.9877,"MEAN_ANOMALY":266.1434,"EPHEMERIS_TYPE":0,"CLASSIFICATION_TYPE":"U","NORAD_CAT_ID":51638,"ELEMENT_SET_NO":999,"REV_AT_EPOCH":17711,"BSTAR":-0.00067316529,"MEAN_MOTION_DOT":-2.22e-6,"MEAN_MOTION_DDOT":0},{"OBJECT_NAME":"ONEWEB-0445","OBJECT_ID":"2022-012T","EPOCH":"2025-10-14T04:04:52.350240","MEAN_MOTION":13.10372378,"ECCENTRICITY":0.00017951,"INCLINATION":87.8766,"RA_OF_ASC_NODE":85.2803,"ARG_OF_PERICENTER":89.7017,"MEAN_ANOMALY":270.4316,"EPHEMERIS_TYPE":0,"CLASSIFICATION_TYPE":"U","NORAD_CAT_ID":51639,"ELEMENT_SET_NO":999,"REV_AT_EPOCH":17712,"BSTAR":-0.0015663591,"MEAN_MOTION_DOT":-5.34e-6,"MEAN_MOTION_DDOT":0},{"OBJECT_NAME":"ONEWEB-0446","OBJECT_ID":"2022-012U","EPOCH":"2025-10-14T03:31:26.480928","MEAN_MOTION":13.10363442,"ECCENTRICITY":0.00021055,"INCLINATION":87.8753,"RA_OF_ASC_NODE":85.343,"ARG_OF_PERICENTER":92.0399,"MEAN_ANOMALY":268.0969,"EPHEMERIS_TYPE":0,"CLASSIFICATION_TYPE":"U","NORAD_CAT_ID":51640,"ELEMENT_SET_NO":999,"REV_AT_EPOCH":17710,"BSTAR":0.0026249504,"MEAN_MOTION_DOT":9.29e-6,"MEAN_MOTION_DDOT":0},{"OBJECT_NAME":"ONEWEB-0448","OBJECT_ID":"2022-012V","EPOCH":"2025-10-14T03:38:35.994336","MEAN_MOTION":13.10369515,"ECCENTRICITY":0.00015392,"INCLINATION":87.8753,"RA_OF_ASC_NODE":85.3418,"ARG_OF_PERICENTER":94.5581,"MEAN_ANOMALY":265.5722,"EPHEMERIS_TYPE":0,"CLASSIFICATION_TYPE":"U","NORAD_CAT_ID":51641,"ELEMENT_SET_NO":999,"REV_AT_EPOCH":17707,"BSTAR":-0.0010762591,"MEAN_MOTION_DOT":-3.63e-6,"MEAN_MOTION_DDOT":0},{"OBJECT_NAME":"ONEWEB-0449","OBJECT_ID":"2022-012W","EPOCH":"2025-10-14T03:45:45.918144","MEAN_MOTION":13.10368145,"ECCENTRICITY":0.00015448,"INCLINATION":87.875,"RA_OF_ASC_NODE":85.3106,"ARG_OF_PERICENTER":75.6676,"MEAN_ANOMALY":284.4623,"EPHEMERIS_TYPE":0,"CLASSIFICATION_TYPE":"U","NORAD_CAT_ID":51642,"ELEMENT_SET_NO":999,"REV_AT_EPOCH":17708,"BSTAR":-0.00031338555,"MEAN_MOTION_DOT":-9.7e-7,"MEAN_MOTION_DDOT":0},{"OBJECT_NAME":"ONEWEB-0451","OBJECT_ID":"2022-012X","EPOCH":"2025-10-14T07:51:38.687904","MEAN_MOTION":13.17647602,"ECCENTRICITY":0.00016463,"INCLINATION":87.9104,"RA_OF_ASC_NODE":54.7189,"ARG_OF_PERICENTER":94.0447,"MEAN_ANOMALY":266.0872,"EPHEMERIS_TYPE":0,"CLASSIFICATION_TYPE":"U","NORAD_CAT_ID":51643,"ELEMENT_SET_NO":999,"REV_AT_EPOCH":18128,"BSTAR":5.5797898e-5,"MEAN_MOTION_DOT":3.5e-7,"MEAN_MOTION_DDOT":0},{"OBJECT_NAME":"ONEWEB-0452","OBJECT_ID":"2022-012Y","EPOCH":"2025-10-14T07:49:11.210880","MEAN_MOTION":13.17646031,"ECCENTRICITY":0.00014103,"INCLINATION":87.9095,"RA_OF_ASC_NODE":54.7789,"ARG_OF_PERICENTER":93.2325,"MEAN_ANOMALY":266.8968,"EPHEMERIS_TYPE":0,"CLASSIFICATION_TYPE":"U","NORAD_CAT_ID":51644,"ELEMENT_SET_NO":999,"REV_AT_EPOCH":18129,"BSTAR":0.00039950329,"MEAN_MOTION_DOT":1.68e-6,"MEAN_MOTION_DDOT":0},{"OBJECT_NAME":"ONEWEB-0456","OBJECT_ID":"2022-012AA","EPOCH":"2025-10-14T04:00:05.691456","MEAN_MOTION":13.10372798,"ECCENTRICITY":0.00015402,"INCLINATION":87.8763,"RA_OF_ASC_NODE":85.2731,"ARG_OF_PERICENTER":99.3998,"MEAN_ANOMALY":260.7304,"EPHEMERIS_TYPE":0,"CLASSIFICATION_TYPE":"U","NORAD_CAT_ID":51646,"ELEMENT_SET_NO":999,"REV_AT_EPOCH":17712,"BSTAR":-0.0015595026,"MEAN_MOTION_DOT":-5.32e-6,"MEAN_MOTION_DDOT":0}]
